{"type": "FeatureCollection", "features": [ {"type": "Feature", "properties": {"norad_id": 43437, "name": "SENTINEL-3B", "group": "resource", "lat": -11.284539513086166, "lon": -118.39423510666842, "alt_km": 807.1707882359988, "timestamp": "2025-12-24T07:45:05.856516+00:00", "meta": {"OBJECT_NAME": "SENTINEL-3B", "OBJECT_ID": "2018-039A", "EPOCH": "2025-12-23T15:42:35.768160", "MEAN_MOTION": 14.26738154, "ECCENTRICITY": 0.00016191, "INCLINATION": 98.6252, "RA_OF_ASC_NODE": 62.6827, "ARG_OF_PERICENTER": 91.1404, "MEAN_ANOMALY": 268.9962, "EPHEMERIS_TYPE": 0, "CLASSIFICATION_TYPE": "U", "NORAD_CAT_ID": 43437, "ELEMENT_SET_NO": 999, "REV_AT_EPOCH": 39909, "BSTAR": 7.5156168e-05, "MEAN_MOTION_DOT": 1.38e-06, "MEAN_MOTION_DDOT": 0}, "tle": {"line1": "1 43437U 18039A   25357.65458065  .00000138  00000+0  75156-4 0  9992", "line2": "2 43437  98.6252  62.6827 0001619  91.1404 268.9962 14.26738154399095"}}, "geometry": {"type": "Point", "coordinates": [-118.39423510666842, -11.284539513086166]}}, {"type": "Feature", "properties": {"norad_id": 43461, "name": "GAOFEN-5 01", "group": "resource", "lat": 36.718881943848466, "lon": 147.84753868890374, "alt_km": 689.3337178191541, "timestamp": "2025-12-24T07:45:05.856526+00:00", "meta": {"OBJECT_NAME": "GAOFEN-5 01", "OBJECT_ID": "2018-043A", "EPOCH": "2025-12-23T21:14:03.284736", "MEAN_MOTION": 14.60421492, "ECCENTRICITY": 5.102e-05, "INCLINATION": 98.4343, "RA_OF_ASC_NODE": 321.0475, "ARG_OF_PERICENTER": 254.8295, "MEAN_ANOMALY": 105.2849, "EPHEMERIS_TYPE": 0, "CLASSIFICATION_TYPE": "U", "NORAD_CAT_ID": 43461, "ELEMENT_SET_NO": 999, "REV_AT_EPOCH": 40610, "BSTAR": 0.00010698166, "MEAN_MOTION_DOT": 4.69e-06, "MEAN_MOTION_DDOT": 0}, "tle": {"line1": "1 43461U 18043A   25357.88476024  .00000469  00000+0  10698-3 0  9990", "line2": "2 43461  98.4343 321.0475 0000510 254.8295 105.2849 14.60421492406107"}}, "geometry": {"type": "Point", "coordinates": [147.84753868890374, 36.718881943848466]}}, {"type": "Feature", "properties": {"norad_id": 43484, "name": "GAOFEN-6", "group": "resource", "lat": 82.16697111231156, "lon": -32.52160948589068, "alt_km": 628.3932314652084, "timestamp": "2025-12-24T07:45:05.856536+00:00", "meta": {"OBJECT_NAME": "GAOFEN-6", "OBJECT_ID": "2018-048A", "EPOCH": "2025-12-23T23:12:42.428736", "MEAN_MOTION": 14.76585677, "ECCENTRICITY": 0.00126467, "INCLINATION": 97.8016, "RA_OF_ASC_NODE": 61.8565, "ARG_OF_PERICENTER": 30.4074, "MEAN_ANOMALY": 329.7868, "EPHEMERIS_TYPE": 0, "CLASSIFICATION_TYPE": "U", "NORAD_CAT_ID": 43484, "ELEMENT_SET_NO": 999, "REV_AT_EPOCH": 40753, "BSTAR": 0.00014247002, "MEAN_MOTION_DOT": 9.46e-06, "MEAN_MOTION_DDOT": 0}, "tle": {"line1": "1 43484U 18048A   25357.96715774  .00000946  00000+0  14247-3 0  9991", "line2": "2 43484  97.8016  61.8565 0012646  30.4074 329.7868 14.76585677407532"}}, "geometry": {"type": "Point", "coordinates": [-32.52160948589068, 82.16697111231156]}}, {"type": "Feature", "properties": {"norad_id": 43585, "name": "GAOFEN-11 01", "group": "resource", "lat": 47.25453512286455, "lon": 53.350838724016135, "alt_km": 416.38707719952345, "timestamp": "2025-12-24T07:45:05.856546+00:00", "meta": {"OBJECT_NAME": "GAOFEN-11 01", "OBJECT_ID": "2018-063A", "EPOCH": "2025-12-23T23:47:48.364800", "MEAN_MOTION": 15.49522285, "ECCENTRICITY": 0.00038808, "INCLINATION": 97.1544, "RA_OF_ASC_NODE": 60.8331, "ARG_OF_PERICENTER": 254.1898, "MEAN_ANOMALY": 105.8926, "EPHEMERIS_TYPE": 0, "CLASSIFICATION_TYPE": "U", "NORAD_CAT_ID": 43585, "ELEMENT_SET_NO": 999, "REV_AT_EPOCH": 41316, "BSTAR": 0.00021359005, "MEAN_MOTION_DOT": 0.00011684, "MEAN_MOTION_DDOT": 0}, "tle": {"line1": "1 43585U 18063A   25357.99153200  .00011684  00000+0  21359-3 0  9996", "line2": "2 43585  97.1544  60.8331 0003880 254.1898 105.8926 15.49522285413163"}}, "geometry": {"type": "Point", "coordinates": [53.350838724016135, 47.25453512286455]}}, {"type": "Feature", "properties": {"norad_id": 43613, "name": "ICESAT-2", "group": "resource", "lat": -18.104148787910837, "lon": -115.48093792715432, "alt_km": 487.61647787443417, "timestamp": "2025-12-24T07:45:05.856556+00:00", "meta": {"OBJECT_NAME": "ICESAT-2", "OBJECT_ID": "2018-070A", "EPOCH": "2025-12-23T22:24:04.787136", "MEAN_MOTION": 15.28198972, "ECCENTRICITY": 0.00030134, "INCLINATION": 92.004, "RA_OF_ASC_NODE": 243.7581, "ARG_OF_PERICENTER": 109.8386, "MEAN_ANOMALY": 250.3188, "EPHEMERIS_TYPE": 0, "CLASSIFICATION_TYPE": "U", "NORAD_CAT_ID": 43613, "ELEMENT_SET_NO": 999, "REV_AT_EPOCH": 40569, "BSTAR": 0.00033243753, "MEAN_MOTION_DOT": 9.134e-05, "MEAN_MOTION_DDOT": 0}, "tle": {"line1": "1 43613U 18070A   25357.93338874  .00009134  00000+0  33244-3 0  9995", "line2": "2 43613  92.0040 243.7581 0003013 109.8386 250.3188 15.28198972405699"}}, "geometry": {"type": "Point", "coordinates": [-115.48093792715432, -18.104148787910837]}}, {"type": "Feature", "properties": {"norad_id": 43719, "name": "HYSIS", "group": "resource", "lat": -32.574538232602116, "lon": -123.9169582710522, "alt_km": 640.1975289944912, "timestamp": "2025-12-24T07:45:05.856566+00:00", "meta": {"OBJECT_NAME": "HYSIS", "OBJECT_ID": "2018-096A", "EPOCH": "2025-12-23T22:40:18.479712", "MEAN_MOTION": 14.78674459, "ECCENTRICITY": 8.574e-05, "INCLINATION": 98.0082, "RA_OF_ASC_NODE": 60.8671, "ARG_OF_PERICENTER": 57.0066, "MEAN_ANOMALY": 303.1228, "EPHEMERIS_TYPE": 0, "CLASSIFICATION_TYPE": "U", "NORAD_CAT_ID": 43719, "ELEMENT_SET_NO": 999, "REV_AT_EPOCH": 38152, "BSTAR": 0.00022156104, "MEAN_MOTION_DOT": 1.572e-05, "MEAN_MOTION_DDOT": 0}, "tle": {"line1": "1 43719U 18096A   25357.94465833  .00001572  00000+0  22156-3 0  9995", "line2": "2 43719  98.0082  60.8671 0000857  57.0066 303.1228 14.78674459381528"}}, "geometry": {"type": "Point", "coordinates": [-123.9169582710522, -32.574538232602116]}}, {"type": "Feature", "properties": {"norad_id": 43783, "name": "KAZSTSAT", "group": "resource", "lat": -49.95174596567537, "lon": -155.94995350003268, "alt_km": 572.9368951774795, "timestamp": "2025-12-24T07:45:05.856576+00:00", "meta": {"OBJECT_NAME": "KAZSTSAT", "OBJECT_ID": "2018-099AB", "EPOCH": "2025-12-23T13:06:28.360512", "MEAN_MOTION": 14.99369123, "ECCENTRICITY": 0.00061838, "INCLINATION": 97.4518, "RA_OF_ASC_NODE": 32.2653, "ARG_OF_PERICENTER": 281.7158, "MEAN_ANOMALY": 78.3372, "EPHEMERIS_TYPE": 0, "CLASSIFICATION_TYPE": "U", "NORAD_CAT_ID": 43783, "ELEMENT_SET_NO": 999, "REV_AT_EPOCH": 38498, "BSTAR": 4.476789e-05, "MEAN_MOTION_DOT": 4.92e-06, "MEAN_MOTION_DDOT": 0}, "tle": {"line1": "1 43783U 18099AB  25357.54616158  .00000492  00000+0  44768-4 0  9997", "line2": "2 43783  97.4518  32.2653 0006183 281.7158  78.3372 14.99369123384981"}}, "geometry": {"type": "Point", "coordinates": [-155.94995350003268, -49.95174596567537]}}, {"type": "Feature", "properties": {"norad_id": 43831, "name": "SAUDISAT 5A", "group": "resource", "lat": -58.602058704025985, "lon": 70.47118379194643, "alt_km": 496.8102292263857, "timestamp": "2025-12-24T07:45:05.856588+00:00", "meta": {"OBJECT_NAME": "SAUDISAT 5A", "OBJECT_ID": "2018-102A", "EPOCH": "2025-12-23T22:34:03.094176", "MEAN_MOTION": 15.25788494, "ECCENTRICITY": 0.00111594, "INCLINATION": 97.3333, "RA_OF_ASC_NODE": 57.915, "ARG_OF_PERICENTER": 41.4888, "MEAN_ANOMALY": 318.7196, "EPHEMERIS_TYPE": 0, "CLASSIFICATION_TYPE": "U", "NORAD_CAT_ID": 43831, "ELEMENT_SET_NO": 999, "REV_AT_EPOCH": 38893, "BSTAR": 0.00025207002, "MEAN_MOTION_DOT": 6.38e-05, "MEAN_MOTION_DDOT": 0}, "tle": {"line1": "1 43831U 18102A   25357.94031359  .00006380  00000+0  25207-3 0  9992", "line2": "2 43831  97.3333  57.9150 0011159  41.4888 318.7196 15.25788494388935"}}, "geometry": {"type": "Point", "coordinates": [70.47118379194643, -58.602058704025985]}}, {"type": "Feature", "properties": {"norad_id": 43833, "name": "SAUDISAT 5B", "group": "resource", "lat": 7.354565386765954, "lon": 60.09603337122226, "alt_km": 482.72516075340354, "timestamp": "2025-12-24T07:45:05.856598+00:00", "meta": {"OBJECT_NAME": "SAUDISAT 5B", "OBJECT_ID": "2018-102C", "EPOCH": "2025-12-23T23:51:04.498848", "MEAN_MOTION": 15.26136577, "ECCENTRICITY": 0.00119064, "INCLINATION": 97.3428, "RA_OF_ASC_NODE": 60.7263, "ARG_OF_PERICENTER": 43.3793, "MEAN_ANOMALY": 316.838, "EPHEMERIS_TYPE": 0, "CLASSIFICATION_TYPE": "U", "NORAD_CAT_ID": 43833, "ELEMENT_SET_NO": 999, "REV_AT_EPOCH": 38905, "BSTAR": 0.00025541945, "MEAN_MOTION_DOT": 6.535e-05, "MEAN_MOTION_DDOT": 0}, "tle": {"line1": "1 43833U 18102C   25357.99380207  .00006535  00000+0  25542-3 0  9992", "line2": "2 43833  97.3428  60.7263 0011906  43.3793 316.8380 15.26136577389053"}}, "geometry": {"type": "Point", "coordinates": [60.09603337122226, 7.354565386765954]}}, {"type": "Feature", "properties": {"norad_id": 44622, "name": "GAOFEN-10R", "group": "resource", "lat": -49.4240350179562, "lon": -44.6372233151454, "alt_km": 624.6522182166627, "timestamp": "2025-12-24T07:45:05.856609+00:00", "meta": {"OBJECT_NAME": "GAOFEN-10R", "OBJECT_ID": "2019-066A", "EPOCH": "2025-12-23T23:52:45.553152", "MEAN_MOTION": 14.82828439, "ECCENTRICITY": 0.00070886, "INCLINATION": 98.0293, "RA_OF_ASC_NODE": 305.546, "ARG_OF_PERICENTER": 8.8299, "MEAN_ANOMALY": 351.3038, "EPHEMERIS_TYPE": 0, "CLASSIFICATION_TYPE": "U", "NORAD_CAT_ID": 44622, "ELEMENT_SET_NO": 999, "REV_AT_EPOCH": 33641, "BSTAR": 0.00019838774, "MEAN_MOTION_DOT": 1.551e-05, "MEAN_MOTION_DDOT": 0}, "tle": {"line1": "1 44622U 19066A   25357.99497168  .00001551  00000+0  19839-3 0  9999", "line2": "2 44622  98.0293 305.5460 0007088   8.8299 351.3038 14.82828439336412"}}, "geometry": {"type": "Point", "coordinates": [-44.6372233151454, -49.4240350179562]}}]}